NORAD_CAT_ID,OBJECT_NAME,OBJECT_TYPE,EPOCH,MEAN_MOTION,ECCENTRICITY,INCLINATION,RA_OF_ASC_NODE,ARG_OF_PERICENTER,MEAN_ANOMALY,BSTAR,MEAN_MOTION_DOT,MEAN_MOTION_DDOT,TLE_LINE0,TLE_LINE1,TLE_LINE2,SEMIMAJOR_AXIS,PERIOD,APOGEE,PERIGEE,DECAYED
53965.0,STARLINK-4578,PAYLOAD,2024-04-30 03:33:26,15.08848551,0.0001596,53.219,30.3337,83.6236,276.4938,0.00025747,3.813e-05,0.0,0 STARLINK-4578,1 53965U 22125B   24121.14822893  .00003813  00000-0  25747-3 0  9990,2 53965  53.2190  30.3337 0001596  83.6236 276.4938 15.08848551 86950,6917.854,95.437,540.823,538.615,0.0
53965.0,STARLINK-4578,PAYLOAD,2024-04-30 11:30:22,15.0884393,0.0001984,53.2175,28.8492,80.1429,279.9787,0.00013205,1.814e-05,0.0,0 STARLINK-4578,1 53965U 22125B   24121.47943195  .00001814  00000-0  13205-3 0  9990,2 53965  53.2175  28.8492 0001984  80.1429 279.9787 15.08843930 86938,6917.868,95.437,541.106,538.361,0.0
53965.0,STARLINK-4578,PAYLOAD,2024-04-30 22:38:04,15.08848022,0.0001446,53.2181,26.7677,84.8787,275.237,0.00011512,1.545e-05,0.0,0 STARLINK-4578,1 53965U 22125B   24121.94310764  .00001545  00000-0  11512-3 0  9992,2 53965  53.2181  26.7677 0001446  84.8787 275.2370 15.08848022 87001,6917.856,95.437,540.721,538.721,0.0
53965.0,STARLINK-4578,PAYLOAD,2024-05-01 00:13:27,15.08850122,0.000146,53.2179,26.4697,88.079,272.0369,0.00016099,2.276e-05,0.0,0 STARLINK-4578,1 53965U 22125B   24122.00934663  .00002276  00000-0  16099-3 0  9997,2 53965  53.2179  26.4697 0001460  88.0790 272.0369 15.08850122 87088,6917.849,95.437,540.724,538.704,0.0
53965.0,STARLINK-4578,PAYLOAD,2024-05-02 00:04:13,15.08857849,0.000139,53.217,22.0121,81.0264,279.0885,-1.9559e-05,-5.99e-06,0.0,0 STARLINK-4578,1 53965U 22125B   24123.00293929 -.00000599  00000-0 -19559-4 0  9994,2 53965  53.2170  22.0121 0001390  81.0264 279.0885 15.08857849 87166,6917.826,95.436,540.652,538.729,0.0
53965.0,STARLINK-4578,PAYLOAD,2024-05-02 00:04:14,15.08849603,0.0001389,53.2164,22.0117,77.4814,282.6333,0.00019156,2.763e-05,0.0,0 STARLINK-4578,1 53965U 22125B   24123.00294336  .00002763  00000-0  19156-3 0  9992,2 53965  53.2164  22.0117 0001389  77.4814 282.6333 15.08849603 87237,6917.851,95.437,540.677,538.755,0.0
53965.0,STARLINK-4578,PAYLOAD,2024-05-02 23:55:01,15.0884744,0.0001323,53.217,17.5502,92.9378,267.1766,0.00014,1.941e-05,0.0,0 STARLINK-4578,1 53965U 22125B   24123.99654276  .00001941  00000-0  14000-3 0  9993,2 53965  53.2170  17.5502 0001323  92.9378 267.1766 15.08847440 87387,6917.858,95.437,540.638,538.807,0.0
53965.0,STARLINK-4578,PAYLOAD,2024-05-03 09:27:19,15.08849346,0.0001196,53.216,15.7664,91.0683,269.0446,0.00011951,1.615e-05,0.0,0 STARLINK-4578,1 53965U 22125B   24124.39397990  .00001615  00000-0  11951-3 0  9995,2 53965  53.2160  15.7664 0001196  91.0683 269.0446 15.08849346 87374,6917.852,95.437,540.544,538.889,0.0
53965.0,STARLINK-4578,PAYLOAD,2024-05-03 20:35:02,15.08836396,0.0001435,53.2182,13.6856,94.0899,266.0258,6.3646e-05,7.25e-06,0.0,0 STARLINK-4578,1 53965U 22125B   24124.85766552  .00000725  00000-0  63646-4 0  9990,2 53965  53.2182  13.6856 0001435  94.0899 266.0258 15.08836396 87511,6917.891,95.438,540.749,538.764,0.0
53965.0,STARLINK-4578,PAYLOAD,2024-05-04 20:25:50,15.08836912,0.0001367,53.2185,9.2246,107.2355,252.8786,-8.427e-05,-1.629e-05,0.0,0 STARLINK-4578,1 53965U 22125B   24125.85127481 -.00001629  00000-0 -84270-4 0  9995,2 53965  53.2185   9.2246 0001367 107.2355 252.8786 15.08836912 87665,6917.89,95.438,540.701,538.809,0.0
53965.0,STARLINK-4578,PAYLOAD,2024-05-05 02:47:22,15.08838674,0.0001284,53.2174,8.0339,89.6135,270.5005,-7.6653e-06,-4.1e-06,0.0,0 STARLINK-4578,1 53965U 22125B   24126.11623206 -.00000410  00000-0 -76653-5 0  9995,2 53965  53.2174   8.0339 0001284  89.6135 270.5005 15.08838674 87635,6917.884,95.438,540.638,538.861,0.0
53965.0,STARLINK-4578,PAYLOAD,2024-05-05 20:16:36,15.08839323,0.0001375,53.2183,4.7632,89.6049,270.5101,0.00010127,1.324e-05,0.0,0 STARLINK-4578,1 53965U 22125B   24126.84487031  .00001324  00000-0  10127-3 0  9994,2 53965  53.2183   4.7632 0001375  89.6049 270.5101 15.08839323 87818,6917.882,95.438,540.699,538.796,0.0
53965.0,STARLINK-4578,PAYLOAD,2024-05-05 21:51:59,15.08841238,0.0001429,53.2184,4.4658,93.9208,266.1948,0.00011733,1.58e-05,0.0,0 STARLINK-4578,1 53965U 22125B   24126.91110883  .00001580  00000-0  11733-3 0  9998,2 53965  53.2184   4.4658 0001429  93.9208 266.1948 15.08841238 87750,6917.877,95.437,540.73,538.753,0.0
53965.0,STARLINK-4578,PAYLOAD,2024-05-06 01:02:45,15.08848516,0.000137,53.2177,3.8696,84.821,275.2939,0.00013915,1.928e-05,0.0,0 STARLINK-4578,1 53965U 22125B   24127.04358429  .00001928  00000-0  13915-3 0  9993,2 53965  53.2177   3.8696 0001370  84.8210 275.2939 15.08848516 87841,6917.854,95.437,540.667,538.772,0.0
53965.0,STARLINK-4578,PAYLOAD,2024-05-06 08:59:41,15.08838608,0.0001376,53.2179,2.3826,83.5515,276.5634,0.00011812,1.592e-05,0.0,0 STARLINK-4578,1 53965U 22125B   24127.37479138  .00001592  00000-0  11812-3 0  9991,2 53965  53.2179   2.3826 0001376  83.5515 276.5634 15.08838608 87894,6917.885,95.438,540.702,538.798,0.0
53965.0,STARLINK-4578,PAYLOAD,2024-05-06 21:42:46,15.08840311,0.0001162,53.2161,0.0026,87.7026,272.4099,0.00021834,3.189e-05,0.0,0 STARLINK-4578,1 53965U 22125B   24127.90470843  .00003189  00000-0  21834-3 0  9993,2 53965  53.2161   0.0026 0001162  87.7026 272.4099 15.08840311 87904,6917.879,95.438,540.548,538.941,0.0
53965.0,STARLINK-4578,PAYLOAD,2024-05-07 08:50:28,15.08845771,0.0001256,53.2171,357.9237,77.729,282.3843,0.00013316,1.832e-05,0.0,0 STARLINK-4578,1 53965U 22125B   24128.36838862  .00001832  00000-0  13316-3 0  9992,2 53965  53.2171 357.9237 0001256  77.7290 282.3843 15.08845771 87978,6917.863,95.437,540.597,538.859,0.0
53965.0,STARLINK-4578,PAYLOAD,2024-05-07 19:58:11,15.08840815,0.0001514,53.2208,355.8395,97.7038,262.4126,-6.2227e-05,-1.278e-05,0.0,0 STARLINK-4578,1 53965U 22125B   24128.83207763 -.00001278  00000-0 -62227-4 0  9996,2 53965  53.2208 355.8395 0001514  97.7038 262.4126 15.08840815 88114,6917.878,95.438,540.79,538.696,0.0
53965.0,STARLINK-4578,PAYLOAD,2024-05-07 21:33:34,15.08840114,0.0001428,53.2206,355.542,100.067,260.0483,-6.7983e-05,-1.37e-05,0.0,0 STARLINK-4578,1 53965U 22125B   24128.89831776 -.00001370  00000-0 -67983-4 0  9996,2 53965  53.2206 355.5420 0001428 100.0670 260.0483 15.08840114 88057,6917.88,95.438,540.733,538.757,0.0
53965.0,STARLINK-4578,PAYLOAD,2024-05-08 08:41:16,15.08842653,0.0001467,53.2192,353.4613,95.7697,264.3463,-3.345e-05,-8.2e-06,0.0,0 STARLINK-4578,1 53965U 22125B   24129.36199600 -.00000820  00000-0 -33450-4 0  9993,2 53965  53.2192 353.4613 0001467  95.7697 264.3463 15.08842653 88127,6917.872,95.437,540.752,538.722,0.0
53965.0,STARLINK-4578,PAYLOAD,2024-05-08 21:24:21,15.0884568,0.0001226,53.2174,351.082,93.7702,266.3431,0.00017638,2.521e-05,0.0,0 STARLINK-4578,1 53965U 22125B   24129.89191274  .00002521  00000-0  17638-3 0  9997,2 53965  53.2174 351.0820 0001226  93.7702 266.3431 15.08845680 88275,6917.863,95.437,540.576,538.88,0.0
53965.0,STARLINK-4578,PAYLOAD,2024-05-09 19:39:45,15.08840301,0.0001147,53.2172,346.9188,98.7546,261.3576,0.00023454,3.447e-05,0.0,0 STARLINK-4578,1 53965U 22125B   24130.81927719  .00003447  00000-0  23454-3 0  9993,2 53965  53.2172 346.9188 0001147  98.7546 261.3576 15.08840301 88412,6917.879,95.438,540.538,538.951,0.0
53965.0,STARLINK-4578,PAYLOAD,2024-05-09 21:15:08,15.08844722,0.0001151,53.2176,346.6211,89.6991,270.4133,0.00016843,2.394e-05,0.0,0 STARLINK-4578,1 53965U 22125B   24130.88551517  .00002394  00000-0  16843-3 0  9993,2 53965  53.2176 346.6211 0001151  89.6991 270.4133 15.08844722 88352,6917.866,95.437,540.527,538.935,0.0
53965.0,STARLINK-4578,PAYLOAD,2024-05-10 14:44:23,15.08842335,0.0001191,53.2188,343.3525,93.4123,266.7005,8.0226e-05,9.89e-06,0.0,0 STARLINK-4578,1 53965U 22125B   24131.61415756  .00000989  00000-0  80226-4 0  9994,2 53965  53.2188 343.3525 0001191  93.4123 266.7005 15.08842335 88467,6917.873,95.437,540.562,538.914,0.0
53965.0,STARLINK-4578,PAYLOAD,2024-05-10 19:30:32,15.08849467,0.0001337,53.2181,342.4591,102.372,257.7422,0.00011129,1.484e-05,0.0,0 STARLINK-4578,1 53965U 22125B   24131.81287240  .00001484  00000-0  11129-3 0  9997,2 53965  53.2181 342.4591 0001337 102.3720 257.7422 15.08849467 88497,6917.851,95.437,540.641,538.792,0.0
53965.0,STARLINK-4578,PAYLOAD,2024-05-11 12:59:44,15.08882033,9.87e-05,53.2175,339.1851,84.7575,275.353,0.00054259,8.368e-05,0.0,0 STARLINK-4578,1 53965U 22125B   24132.54148431  .00008368  00000-0  54259-3 0  9995,2 53965  53.2175 339.1851 0000987  84.7575 275.3530 15.08882033 88675,6917.752,95.435,540.3,538.934,0.0
53965.0,STARLINK-4578,PAYLOAD,2024-05-11 20:56:42,15.08800946,0.0001782,53.217,337.7012,95.4587,264.6609,-0.0010453,-0.00016868,0.0,0 STARLINK-4578,1 53965U 22125B   24132.87271590 -.00016868  00000-0 -10453-2 0  9997,2 53965  53.2170 337.7012 0001782  95.4587 264.6609 15.08800946 88726,6918.0,95.44,541.098,538.632,0.0
53965.0,STARLINK-4578,PAYLOAD,2024-05-12 12:50:38,15.08745141,9.63e-05,53.2167,334.7287,93.9211,266.1891,-0.0014584,-0.00023363,0.0,0 STARLINK-4578,1 53965U 22125B   24133.53516263 -.00023363  00000-0 -14584-2 0  9997,2 53965  53.2167 334.7287 0000963  93.9211 266.1891 15.08745141 88826,6918.17,95.444,540.702,539.369,0.0
53965.0,STARLINK-4578,PAYLOAD,2024-05-12 20:47:32,15.08803984,0.0001363,53.2174,333.2408,101.1794,258.9351,-0.00013361,-2.411e-05,0.0,0 STARLINK-4578,1 53965U 22125B   24133.86635335 -.00002411  00000-0 -13361-3 0  9999,2 53965  53.2174 333.2408 0001363 101.1794 258.9351 15.08803984 88871,6917.99,95.44,540.798,538.913,0.0
53965.0,STARLINK-4578,PAYLOAD,2024-05-13 06:19:51,15.08825296,0.0001183,53.2176,331.4561,89.8955,270.2173,0.00039578,6.014e-05,0.0,0 STARLINK-4578,1 53965U 22125B   24134.26379249  .00006014  00000-0  39578-3 0  9992,2 53965  53.2176 331.4561 0001183  89.8955 270.2173 15.08825296 88930,6917.925,95.438,540.609,538.972,0.0
